{
  "type": "FeatureCollection",
  "features": [
    {
      "type": "Feature",
      "properties": {
        "norad_id": 31695,
        "name": "FENGYUN 1C DEB",
        "group": "fengyun-1c-debris",
        "lat": 30.453805651216474,
        "lon": 59.90168263236931,
        "alt_km": 745.7541975661688,
        "timestamp": "2025-12-06T14:35:37.410313+00:00",
        "meta_object_name": "FENGYUN 1C DEB",
        "meta_object_id": "1999-025CDD",
        "meta_epoch": "2025-12-04T11:55:31.104192",
        "meta_mean_motion": 14.73336399,
        "meta_eccentricity": 0.0175505,
        "meta_inclination": 98.2664,
        "meta_ra_of_asc_node": 62.6542,
        "meta_arg_of_pericenter": 254.8437,
        "meta_mean_anomaly": 103.33,
        "meta_ephemeris_type": 0,
        "meta_classification_type": "U",
        "meta_norad_cat_id": 31695,
        "meta_element_set_no": 999,
        "meta_rev_at_epoch": 65850,
        "meta_bstar": 0.0035829,
        "meta_mean_motion_dot": 0.00029711,
        "meta_mean_motion_ddot": 0,
        "tle_line1": "1 31695U 99025CDD 25338.49688778  .00029711  00000+0  35829-2 0  9995",
        "tle_line2": "2 31695  98.2664  62.6542 0175505 254.8437 103.3300 14.73336399658504"
      },
      "geometry": {
        "type": "Point",
        "coordinates": [
          59.90168263236931,
          30.453805651216474
        ]
      }
    },
    {
      "type": "Feature",
      "properties": {
        "norad_id": 31714,
        "name": "FENGYUN 1C DEB",
        "group": "fengyun-1c-debris",
        "lat": 12.503158487081778,
        "lon": 61.96954999228508,
        "alt_km": 623.3569448046665,
        "timestamp": "2025-12-06T14:35:37.410323+00:00",
        "meta_object_name": "FENGYUN 1C DEB",
        "meta_object_id": "1999-025CDM",
        "meta_epoch": "2025-12-03T07:15:10.328832",
        "meta_mean_motion": 14.86254821,
        "meta_eccentricity": 0.0022279,
        "meta_inclination": 99.0327,
        "meta_ra_of_asc_node": 236.1954,
        "meta_arg_of_pericenter": 332.509,
        "meta_mean_anomaly": 154.2586,
        "meta_ephemeris_type": 0,
        "meta_classification_type": "U",
        "meta_norad_cat_id": 31714,
        "meta_element_set_no": 999,
        "meta_rev_at_epoch": 95909,
        "meta_bstar": 0.0084387,
        "meta_mean_motion_dot": 0.0007526,
        "meta_mean_motion_ddot": 0,
        "tle_line1": "1 31714U 99025CDM 25337.30220288  .00075260  00000+0  84387-2 0  9997",
        "tle_line2": "2 31714  99.0327 236.1954 0022279 332.5090 154.2586 14.86254821959096"
      },
      "geometry": {
        "type": "Point",
        "coordinates": [
          61.96954999228508,
          12.503158487081778
        ]
      }
    },
    {
      "type": "Feature",
      "properties": {
        "norad_id": 31715,
        "name": "FENGYUN 1C DEB",
        "group": "fengyun-1c-debris",
        "lat": -70.43155097101521,
        "lon": -163.79969604205542,
        "alt_km": 840.1817763726376,
        "timestamp": "2025-12-06T14:35:37.410333+00:00",
        "meta_object_name": "FENGYUN 1C DEB",
        "meta_object_id": "1999-025CDN",
        "meta_epoch": "2025-11-29T05:58:31.345824",
        "meta_mean_motion": 14.51952144,
        "meta_eccentricity": 0.01873161,
        "meta_inclination": 99.2941,
        "meta_ra_of_asc_node": 160.6278,
        "meta_arg_of_pericenter": 159.6825,
        "meta_mean_anomaly": 201.195,
        "meta_ephemeris_type": 0,
        "meta_classification_type": "U",
        "meta_norad_cat_id": 31715,
        "meta_element_set_no": 999,
        "meta_rev_at_epoch": 61521,
        "meta_bstar": 0.0011034266,
        "meta_mean_motion_dot": 5.542e-05,
        "meta_mean_motion_ddot": 0,
        "tle_line1": "1 31715U 99025CDN 25333.24897391  .00005542  00000+0  11034-2 0  9997",
        "tle_line2": "2 31715  99.2941 160.6278 0187316 159.6825 201.1950 14.51952144615214"
      },
      "geometry": {
        "type": "Point",
        "coordinates": [
          -163.79969604205542,
          -70.43155097101521
        ]
      }
    },
    {
      "type": "Feature",
      "properties": {
        "norad_id": 31716,
        "name": "FENGYUN 1C DEB",
        "group": "fengyun-1c-debris",
        "lat": -40.68545351992168,
        "lon": 52.509783509061876,
        "alt_km": 922.4656821241797,
        "timestamp": "2025-12-06T14:35:37.410343+00:00",
        "meta_object_name": "FENGYUN 1C DEB",
        "meta_object_id": "1999-025CDP",
        "meta_epoch": "2025-11-29T04:21:28.587168",
        "meta_mean_motion": 14.03517485,
        "meta_eccentricity": 0.01287272,
        "meta_inclination": 98.5539,
        "meta_ra_of_asc_node": 232.9562,
        "meta_arg_of_pericenter": 129.7206,
        "meta_mean_anomaly": 26.8865,
        "meta_ephemeris_type": 0,
        "meta_classification_type": "U",
        "meta_norad_cat_id": 31716,
        "meta_element_set_no": 999,
        "meta_rev_at_epoch": 93929,
        "meta_bstar": 0.0015991138,
        "meta_mean_motion_dot": 2.658e-05,
        "meta_mean_motion_ddot": 0,
        "tle_line1": "1 31716U 99025CDP 25333.18158087  .00002658  00000+0  15991-2 0  9994",
        "tle_line2": "2 31716  98.5539 232.9562 0128727 129.7206  26.8865 14.03517485939297"
      },
      "geometry": {
        "type": "Point",
        "coordinates": [
          52.509783509061876,
          -40.68545351992168
        ]
      }
    },
    {
      "type": "Feature",
      "properties": {
        "norad_id": 31720,
        "name": "FENGYUN 1C DEB",
        "group": "fengyun-1c-debris",
        "lat": -52.965735482225824,
        "lon": -95.96289563035414,
        "alt_km": 729.7500132838813,
        "timestamp": "2025-12-06T14:35:37.410353+00:00",
        "meta_object_name": "FENGYUN 1C DEB",
        "meta_object_id": "1999-025CDT",
        "meta_epoch": "2025-12-05T06:12:31.108896",
        "meta_mean_motion": 14.71702125,
        "meta_eccentricity": 0.00997183,
        "meta_inclination": 99.0473,
        "meta_ra_of_asc_node": 250.3462,
        "meta_arg_of_pericenter": 146.666,
        "meta_mean_anomaly": 214.0877,
        "meta_ephemeris_type": 0,
        "meta_classification_type": "U",
        "meta_norad_cat_id": 31720,
        "meta_element_set_no": 999,
        "meta_rev_at_epoch": 98126,
        "meta_bstar": 0.0015386894,
        "meta_mean_motion_dot": 0.00010319,
        "meta_mean_motion_ddot": 0,
        "tle_line1": "1 31720U 99025CDT 25339.25869339  .00010319  00000+0  15387-2 0  9994",
        "tle_line2": "2 31720  99.0473 250.3462 0099718 146.6660 214.0877 14.71702125981267"
      },
      "geometry": {
        "type": "Point",
        "coordinates": [
          -95.96289563035414,
          -52.965735482225824
        ]
      }
    },
    {
      "type": "Feature",
      "properties": {
        "norad_id": 31721,
        "name": "FENGYUN 1C DEB",
        "group": "fengyun-1c-debris",
        "lat": 28.17319303839824,
        "lon": -45.218701835841784,
        "alt_km": 1215.0413120879512,
        "timestamp": "2025-12-06T14:35:37.410363+00:00",
        "meta_object_name": "FENGYUN 1C DEB",
        "meta_object_id": "1999-025CDU",
        "meta_epoch": "2025-12-02T16:57:49.832064",
        "meta_mean_motion": 13.73762765,
        "meta_eccentricity": 0.03172129,
        "meta_inclination": 99.7801,
        "meta_ra_of_asc_node": 316.087,
        "meta_arg_of_pericenter": 209.4664,
        "meta_mean_anomaly": 336.1104,
        "meta_ephemeris_type": 0,
        "meta_classification_type": "U",
        "meta_norad_cat_id": 31721,
        "meta_element_set_no": 999,
        "meta_rev_at_epoch": 67248,
        "meta_bstar": 0.0004880859,
        "meta_mean_motion_dot": 6.09e-06,
        "meta_mean_motion_ddot": 0,
        "tle_line1": "1 31721U 99025CDU 25336.70682676  .00000609  00000+0  48809-3 0  9996",
        "tle_line2": "2 31721  99.7801 316.0870 0317212 209.4664 336.1104 13.73762765672484"
      },
      "geometry": {
        "type": "Point",
        "coordinates": [
          -45.218701835841784,
          28.17319303839824
        ]
      }
    },
    {
      "type": "Feature",
      "properties": {
        "norad_id": 31724,
        "name": "FENGYUN 1C DEB",
        "group": "fengyun-1c-debris",
        "lat": -8.385431841097812,
        "lon": -11.826240140335862,
        "alt_km": 732.2424453000112,
        "timestamp": "2025-12-06T14:35:37.410373+00:00",
        "meta_object_name": "FENGYUN 1C DEB",
        "meta_object_id": "1999-025CDX",
        "meta_epoch": "2025-12-04T06:16:47.265024",
        "meta_mean_motion": 14.48822962,
        "meta_eccentricity": 0.0152327,
        "meta_inclination": 97.8549,
        "meta_ra_of_asc_node": 344.8228,
        "meta_arg_of_pericenter": 268.5146,
        "meta_mean_anomaly": 89.8595,
        "meta_ephemeris_type": 0,
        "meta_classification_type": "U",
        "meta_norad_cat_id": 31724,
        "meta_element_set_no": 999,
        "meta_rev_at_epoch": 64369,
        "meta_bstar": 0.0052478,
        "meta_mean_motion_dot": 0.00022998,
        "meta_mean_motion_ddot": 0,
        "tle_line1": "1 31724U 99025CDX 25338.26165816  .00022998  00000+0  52478-2 0  9995",
        "tle_line2": "2 31724  97.8549 344.8228 0152327 268.5146  89.8595 14.48822962643692"
      },
      "geometry": {
        "type": "Point",
        "coordinates": [
          -11.826240140335862,
          -8.385431841097812
        ]
      }
    }
  ]
}